     2.100          NAVIGATION                              RINEX VERSION / TYPE
fic2rin                                 03/04/2012 00:08:06 PGM / RUN BY / DATE
                                                            END OF HEADER
32 12  3  3  6  0  0.0 -.415267888457D-03 -.500222085975D-11  .000000000000D+00
     .490000000000D+02  .456250000000D+01  .489163232755D-08  .360766690192D+00
     .465661287308D-07  .118469268782D-01  .749714672565D-05  .515372878647D+04
     .540000000000D+06  .113621354103D-06  .153209087474D+01 -.128522515297D-06
     .952000019971D+00  .232062500000D+03 -.607864698290D+00 -.834320467082D-08
    -.332871008271D-09  .100000000000D+01  .167700000000D+04  .000000000000D+00
     .240000000000D+01  .000000000000D+00 -.279396772385D-08  .490000000000D+02
     .532806000000D+06  .400000000000D+01
31 12  3  3  5 59 44.0  .215021893382D-03  .443378667114D-11  .000000000000D+00
     .700000000000D+01  .401875000000D+02  .417553107049D-08 -.263192121408D+00
     .192038714886D-05  .799785752315D-02  .450946390629D-05  .515360219765D+04
     .539984000000D+06 -.447034835815D-07 -.272803008817D+01 -.838190317154D-07
     .980969920443D+00  .299781250000D+03 -.892715361361D+00 -.818248369043D-08
     .218580533328D-09  .100000000000D+01  .167700000000D+04  .000000000000D+00
     .240000000000D+01  .000000000000D+00 -.130385160446D-07  .700000000000D+01
     .534786000000D+06  .400000000000D+01
15 12  3  3  5 59 44.0 -.923755578697D-04  .341060513165D-12  .000000000000D+00
     .100000000000D+01  .640625000000D+02  .460126308965D-08  .175159167205D+01
     .340491533279D-05  .436147884466D-02  .970438122749D-05  .515378305435D+04
     .539984000000D+06 -.931322574615D-08  .247073320917D+01  .391155481339D-07
     .946449126537D+00  .183343750000D+03  .483995255202D-01 -.809926593836D-08
    -.167864135072D-09  .100000000000D+01  .167700000000D+04  .000000000000D+00
     .240000000000D+01  .000000000000D+00 -.102445483208D-07  .100000000000D+01
     .535236000000D+06  .400000000000D+01
15 12  3  3  7 59 44.0 -.923727639019D-04  .341060513165D-12  .000000000000D+00
     .220000000000D+02  .724687500000D+02  .463590738987D-08  .280192539240D+01
     .375322997570D-05  .436214474030D-02  .965222716331D-05  .515378090286D+04
     .547184000000D+06 -.372529029846D-07  .247067482264D+01  .186264514923D-08
     .946448114197D+00  .185500000000D+03  .481815360972D-01 -.806676458455D-08
    -.142863093678D-09  .100000000000D+01  .167700000000D+04  .000000000000D+00
     .240000000000D+01  .000000000000D+00 -.102445483208D-07  .220000000000D+02
     .540006000000D+06  .400000000000D+01
31 12  3  3  7 59 44.0  .215054489672D-03  .443378667114D-11  .000000000000D+00
     .800000000000D+01  .512812500000D+02  .416695928487D-08  .787069145001D+00
     .263936817646D-05  .799631723203D-02  .458955764771D-05  .515359921074D+04
     .547184000000D+06  .167638063431D-07 -.272808902475D+01 -.134110450745D-06
     .980971620354D+00  .297875000000D+03 -.892753427952D+00 -.814462497061D-08
     .220366321999D-09  .100000000000D+01  .167700000000D+04  .000000000000D+00
     .240000000000D+01  .000000000000D+00 -.130385160446D-07  .800000000000D+01
     .540006000000D+06  .400000000000D+01
 1 12  3  3  8  0  0.0  .224728602916D-03  .829913915368D-11  .000000000000D+00
     .170000000000D+02  .109375000000D+02  .479877131666D-08  .786370300257D+00
     .663101673126D-06  .563613255508D-03  .744871795177D-05  .515365481949D+04
     .547200000000D+06  .782310962677D-07  .391838226092D+00  .167638063431D-07
     .960492443748D+00  .233531250000D+03  .779212151394D+00 -.814533928608D-08
     .180364655769D-09  .100000000000D+01  .167700000000D+04  .000000000000D+00
     .240000000000D+01  .000000000000D+00  .838190317154D-08  .170000000000D+02
     .540006000000D+06  .400000000000D+01
 2 12  3  3  8  0  0.0  .381303485483D-03  .147792889038D-11  .000000000000D+00
     .103000000000D+03  .119062500000D+02  .518450166959D-08  .229836561647D+01
     .599771738052D-06  .109792922158D-01  .784732401371D-05  .515365235138D+04
     .547200000000D+06 -.253319740295D-06  .379946238172D+00  .409781932831D-07
     .939061115208D+00  .219281250000D+03 -.284936640522D+01 -.824355766298D-08
     .160720980388D-09  .100000000000D+01  .167700000000D+04  .000000000000D+00
     .240000000000D+01  .000000000000D+00 -.172294676304D-07  .103000000000D+03
     .540006000000D+06  .400000000000D+01
 3 12  3  3  8  0  0.0  .172560103238D-04  .511590769747D-11  .000000000000D+00
     .650000000000D+02 -.703750000000D+02  .504342436458D-08  .243988746004D+01
    -.375509262085D-05  .150600884808D-01  .903755426407D-05  .515371165848D+04
     .547200000000D+06  .115483999252D-06 -.782232590076D+00 -.247731804848D-06
     .930680764121D+00  .187593750000D+03  .117255990999D+01 -.800176187693D-08
     .105004373854D-09  .100000000000D+01  .167700000000D+04  .000000000000D+00
     .340000000000D+01  .000000000000D+00 -.419095158577D-08  .650000000000D+02
     .540006000000D+06  .400000000000D+01
 4 12  3  3  8  0  0.0  .111450441182D-03  .114823706099D-10  .000000000000D+00
     .680000000000D+02  .135000000000D+02  .527736268048D-08 -.909526273809D+00
     .819563865662D-06  .100245494395D-01  .720284879208D-05  .515355855751D+04
     .547200000000D+06  .128522515297D-06  .396954375383D+00  .214204192162D-06
     .938115021216D+00  .228000000000D+03  .838210165835D+00 -.842142221461D-08
     .135362781260D-09  .100000000000D+01  .167700000000D+04  .000000000000D+00
     .240000000000D+01  .000000000000D+00 -.605359673500D-08  .680000000000D+02
     .540006000000D+06  .400000000000D+01
 5 12  3  3  8  0  0.0 -.289443880320D-03 -.432009983342D-11  .000000000000D+00
     .690000000000D+02  .793750000000D+01  .485734518507D-08 -.206082728209D+01
     .366941094398D-06  .269432121422D-02  .747852027416D-05  .515361058617D+04
     .547200000000D+06  .260770320892D-07  .144300667433D+01 -.223517417908D-07
     .951356618359D+00  .231937500000D+03  .296498419744D+00 -.813748181592D-08
    -.341085636157D-09  .100000000000D+01  .167700000000D+04  .000000000000D+00
     .240000000000D+01  .000000000000D+00 -.102445483208D-07  .690000000000D+02
     .540006000000D+06  .400000000000D+01
 6 12  3  3  8  0  0.0  .315741635859D-04  .568434188608D-12  .000000000000D+00
     .350000000000D+02 -.562500000000D+02  .497449292188D-08 -.191965454052D+01
    -.288896262646D-05  .709332642145D-02  .972114503384D-05  .515370127106D+04
     .547200000000D+06 -.167638063431D-06 -.706285607608D+00 -.298023223877D-07
     .937666598789D+00  .182562500000D+03 -.599150733124D+00 -.818176937496D-08
     .172864343351D-09  .100000000000D+01  .167700000000D+04  .000000000000D+00
     .240000000000D+01  .000000000000D+00 -.512227416039D-08  .350000000000D+02
     .540006000000D+06  .400000000000D+01
 7 12  3  3  8  0  0.0  .614593736827D-04  .295585778076D-11  .000000000000D+00
     .560000000000D+02  .443125000000D+02  .425196282560D-08  .805547216446D+00
     .234507024288D-05  .511480972636D-02  .437535345554D-05  .515362069893D+04
     .547200000000D+06  .577419996262D-07 -.273061898504D+01  .987201929092D-07
     .975885637897D+00  .302656250000D+03 -.301150039002D+01 -.812390982202D-08
     .147148986489D-09  .100000000000D+01  .167700000000D+04  .000000000000D+00
     .240000000000D+01  .000000000000D+00 -.107102096081D-07  .560000000000D+02
     .540006000000D+06  .400000000000D+01
 8 12  3  3  8  0  0.0  .699423253536D-06  .000000000000D+00  .000000000000D+00
     .550000000000D+02  .331562500000D+02  .385266047877D-08  .194936005033D+00
     .183098018169D-05  .120949463453D-01  .438094139099D-05  .515370002747D+04
     .547200000000D+06  .203028321266D-06 -.264916594318D+01  .335276126862D-07
     .997921031645D+00  .313406250000D+03 -.297801913984D+01 -.806069290307D-08
     .191793703263D-09  .100000000000D+01  .167700000000D+04  .000000000000D+00
     .240000000000D+01  .000000000000D+00 -.465661287308D-08  .550000000000D+02
     .540006000000D+06  .400000000000D+01
 9 12  3  3  8  0  0.0  .142286065966D-03  .250111042988D-11  .000000000000D+00
     .430000000000D+02  .544687500000D+02  .415338729097D-08  .140865126478D+00
     .272691249847D-05  .172401688760D-01  .467896461487D-05  .515363217926D+04
     .547200000000D+06 -.262632966042D-06 -.275696655657D+01 -.968575477600D-07
     .984675126209D+00  .303937500000D+03  .160508682375D+01 -.838606359892D-08
     .175364447490D-09  .100000000000D+01  .167700000000D+04  .000000000000D+00
     .240000000000D+01  .000000000000D+00 -.558793544769D-08  .430000000000D+02
     .540006000000D+06  .400000000000D+01
10 12  3  3  8  0  0.0 -.309371389449D-04 -.125055521494D-11  .000000000000D+00
     .960000000000D+02  .915625000000D+01  .489377527395D-08 -.168459912629D+01
     .439584255219D-06  .112102519488D-01  .718235969543D-05  .515367306519D+04
     .547200000000D+06  .188127160072D-06  .146507224955D+01 -.119209289551D-06
     .946246358776D+00  .232218750000D+03  .746833006650D+00 -.806319300721D-08
    -.280725979078D-09  .100000000000D+01  .167700000000D+04  .000000000000D+00
     .340000000000D+01  .000000000000D+00 -.232830643654D-08  .960000000000D+02
     .540006000000D+06  .400000000000D+01
11 12  3  3  8  0  0.0 -.237974803895D-03 -.363797880709D-11  .000000000000D+00
     .960000000000D+02  .996875000000D+01  .648169856019D-08  .962452792011D+00
     .676140189171D-06  .127628698247D-01  .812858343124D-05  .515367469788D+04
     .547200000000D+06 -.169500708580D-06  .128249746048D+00  .132247805595D-06
     .888459200166D+00  .186468750000D+03  .103026715248D+01 -.912966600152D-08
     .167864135072D-09  .100000000000D+01  .167700000000D+04  .000000000000D+00
     .340000000000D+01  .000000000000D+00 -.116415321827D-07  .960000000000D+02
     .540006000000D+06  .400000000000D+01
